[{"OBJECT_NAME":"TIANQI-31","OBJECT_ID":"2024-170C","EPOCH":"2026-03-09T19:56:33.224640","MEAN_MOTION":13.99125748,"ECCENTRICITY":0.00074343,"INCLINATION":44.861,"RA_OF_ASC_NODE":220.3339,"ARG_OF_PERICENTER":324.2667,"MEAN_ANOMALY":35.7666,"EPHEMERIS_TYPE":0,"CLASSIFICATION_TYPE":"U","NORAD_CAT_ID":61197,"ELEMENT_SET_NO":999,"REV_AT_EPOCH":7503,"BSTAR":0.00014351436,"MEAN_MOTION_DOT":8.1e-7,"MEAN_MOTION_DDOT":0},{"OBJECT_NAME":"SL-3 R\/B","OBJECT_ID":"1991-061B","EPOCH":"2026-03-09T13:23:47.133888","MEAN_MOTION":14.02286875,"ECCENTRICITY":0.00255202,"INCLINATION":99.4614,"RA_OF_ASC_NODE":277.1324,"ARG_OF_PERICENTER":355.1353,"MEAN_ANOMALY":4.9559,"EPHEMERIS_TYPE":0,"CLASSIFICATION_TYPE":"U","NORAD_CAT_ID":21689,"ELEMENT_SET_NO":999,"REV_AT_EPOCH":76609,"BSTAR":2.5593185e-5,"MEAN_MOTION_DOT":-9.0e-8,"MEAN_MOTION_DDOT":0}]
